{
    "bodies": [
        {
            "name": "TNO-710",
            "mass": 0,
            "semi_major_axis": 392.67578125,
            "eccentricity": 0.06933593749999999,
            "inclination": 0.3025350998330015,
            "longitude_of_ascending_node": 3.3462505148870405,
            "argument_of_perihelion": 5.7753034293045,
            "mean_anomaly": 4.086999492360314
        },
        {
            "name": "TNO-711",
            "mass": 0,
            "semi_major_axis": 393.017578125,
            "eccentricity": 0.06943359374999998,
            "inclination": 0.30296120560741413,
            "longitude_of_ascending_node": 4.253629843696979,
            "argument_of_perihelion": 5.68455692950347,
            "mean_anomaly": 0.6043136190844839
        },
        {
            "name": "TNO-712",
            "mass": 0,
            "semi_major_axis": 393.359375,
            "eccentricity": 0.06953124999999999,
            "inclination": 0.30338731138182684,
            "longitude_of_ascending_node": 2.565971207774283,
            "argument_of_perihelion": 2.5129495624089926,
            "mean_anomaly": 2.0545064033872866
        },
        {
            "name": "TNO-713",
            "mass": 0,
            "semi_major_axis": 393.701171875,
            "eccentricity": 0.06962890624999998,
            "inclination": 0.3038134171562395,
            "longitude_of_ascending_node": 5.508784053986728,
            "argument_of_perihelion": 2.107592752556371,
            "mean_anomaly": 2.1822949403365732
        },
        {
            "name": "TNO-714",
            "mass": 0,
            "semi_major_axis": 394.04296875,
            "eccentricity": 0.06972656249999998,
            "inclination": 0.30423952293065215,
            "longitude_of_ascending_node": 1.2655422497393811,
            "argument_of_perihelion": 0.618346680270046,
            "mean_anomaly": 4.772752333214156
        },
        {
            "name": "TNO-715",
            "mass": 0,
            "semi_major_axis": 394.384765625,
            "eccentricity": 0.06982421874999999,
            "inclination": 0.30466562870506486,
            "longitude_of_ascending_node": 5.3252391740031,
            "argument_of_perihelion": 1.5123753285896377,
            "mean_anomaly": 3.507708482667073
        },
        {
            "name": "TNO-716",
            "mass": 0,
            "semi_major_axis": 394.7265625,
            "eccentricity": 0.06992187499999998,
            "inclination": 0.3050917344794775,
            "longitude_of_ascending_node": 4.308791826626225,
            "argument_of_perihelion": 1.604916933054962,
            "mean_anomaly": 1.9241884014889548
        },
        {
            "name": "TNO-717",
            "mass": 0,
            "semi_major_axis": 395.068359375,
            "eccentricity": 0.07001953124999999,
            "inclination": 0.3055178402538902,
            "longitude_of_ascending_node": 3.8693511725594614,
            "argument_of_perihelion": 5.638167527342706,
            "mean_anomaly": 6.065111609335034
        },
        {
            "name": "TNO-718",
            "mass": 0,
            "semi_major_axis": 395.41015625,
            "eccentricity": 0.07011718749999998,
            "inclination": 0.3059439460283029,
            "longitude_of_ascending_node": 0.7718050938857453,
            "argument_of_perihelion": 4.0311782044466735,
            "mean_anomaly": 1.3289520497612715
        },
        {
            "name": "TNO-719",
            "mass": 0,
            "semi_major_axis": 395.751953125,
            "eccentricity": 0.07021484374999998,
            "inclination": 0.30637005180271554,
            "longitude_of_ascending_node": 4.764111752434938,
            "argument_of_perihelion": 5.042990718201991,
            "mean_anomaly": 4.664073174770558
        },
        {
            "name": "TNO-720",
            "mass": 0,
            "semi_major_axis": 396.09375,
            "eccentricity": 0.07031249999999999,
            "inclination": 0.30679615757712825,
            "longitude_of_ascending_node": 1.5188778119938218,
            "argument_of_perihelion": 2.2429296652515394,
            "mean_anomaly": 2.3762620426483863
        },
        {
            "name": "TNO-721",
            "mass": 0,
            "semi_major_axis": 396.435546875,
            "eccentricity": 0.07041015624999998,
            "inclination": 0.3072222633515409,
            "longitude_of_ascending_node": 0.7456836758022155,
            "argument_of_perihelion": 6.249913662053031,
            "mean_anomaly": 0.24873553529165182
        },
        {
            "name": "TNO-722",
            "mass": 0,
            "semi_major_axis": 396.77734375,
            "eccentricity": 0.07050781249999999,
            "inclination": 0.3076483691259536,
            "longitude_of_ascending_node": 1.6391427985520834,
            "argument_of_perihelion": 6.001433387293281,
            "mean_anomaly": 3.0457423915627815
        },
        {
            "name": "TNO-723",
            "mass": 0,
            "semi_major_axis": 397.119140625,
            "eccentricity": 0.07060546874999998,
            "inclination": 0.30807447490036627,
            "longitude_of_ascending_node": 0.11285978000270123,
            "argument_of_perihelion": 3.5933217813784273,
            "mean_anomaly": 3.640078497864873
        },
        {
            "name": "TNO-724",
            "mass": 0,
            "semi_major_axis": 397.4609375,
            "eccentricity": 0.07070312499999998,
            "inclination": 0.3085005806747789,
            "longitude_of_ascending_node": 0.09272208309621321,
            "argument_of_perihelion": 3.3231232267071875,
            "mean_anomaly": 2.4940969330343967
        },
        {
            "name": "TNO-725",
            "mass": 0,
            "semi_major_axis": 397.802734375,
            "eccentricity": 0.07080078124999999,
            "inclination": 0.30892668644919163,
            "longitude_of_ascending_node": 0.9605562790144547,
            "argument_of_perihelion": 4.91439235382567,
            "mean_anomaly": 1.0974405276701578
        },
        {
            "name": "TNO-726",
            "mass": 0,
            "semi_major_axis": 398.14453125,
            "eccentricity": 0.07089843749999998,
            "inclination": 0.3093527922236043,
            "longitude_of_ascending_node": 3.9173124226437004,
            "argument_of_perihelion": 1.6350628898776007,
            "mean_anomaly": 1.5302739689797649
        },
        {
            "name": "TNO-727",
            "mass": 0,
            "semi_major_axis": 398.486328125,
            "eccentricity": 0.07099609374999999,
            "inclination": 0.309778897998017,
            "longitude_of_ascending_node": 1.0705890318930502,
            "argument_of_perihelion": 1.5476164244334127,
            "mean_anomaly": 1.0375797838527212
        },
        {
            "name": "TNO-728",
            "mass": 0,
            "semi_major_axis": 398.828125,
            "eccentricity": 0.07109374999999998,
            "inclination": 0.31020500377242965,
            "longitude_of_ascending_node": 3.6791043109756787,
            "argument_of_perihelion": 4.795685712592478,
            "mean_anomaly": 4.255346846335604
        },
        {
            "name": "TNO-729",
            "mass": 0,
            "semi_major_axis": 399.169921875,
            "eccentricity": 0.07119140624999998,
            "inclination": 0.31063110954684237,
            "longitude_of_ascending_node": 3.4045662542173445,
            "argument_of_perihelion": 3.603629396681253,
            "mean_anomaly": 0.16881171589748667
        },
        {
            "name": "TNO-730",
            "mass": 0,
            "semi_major_axis": 399.51171875,
            "eccentricity": 0.07128906249999999,
            "inclination": 0.311057215321255,
            "longitude_of_ascending_node": 0.969161663906611,
            "argument_of_perihelion": 1.3447505038890235,
            "mean_anomaly": 1.4395258642161366
        },
        {
            "name": "TNO-731",
            "mass": 0,
            "semi_major_axis": 399.853515625,
            "eccentricity": 0.07138671874999998,
            "inclination": 0.3114833210956677,
            "longitude_of_ascending_node": 0.527791836492481,
            "argument_of_perihelion": 0.7767557793763906,
            "mean_anomaly": 4.381843075325139
        },
        {
            "name": "TNO-732",
            "mass": 0,
            "semi_major_axis": 400.1953125,
            "eccentricity": 0.07148437499999999,
            "inclination": 0.3119094268700804,
            "longitude_of_ascending_node": 2.316828657326353,
            "argument_of_perihelion": 5.879241355101576,
            "mean_anomaly": 3.4160733565200894
        },
        {
            "name": "TNO-733",
            "mass": 0,
            "semi_major_axis": 400.537109375,
            "eccentricity": 0.07158203124999998,
            "inclination": 0.31233553264449304,
            "longitude_of_ascending_node": 5.116864171880101,
            "argument_of_perihelion": 5.609402914368056,
            "mean_anomaly": 6.255373375295075
        },
        {
            "name": "TNO-734",
            "mass": 0,
            "semi_major_axis": 400.87890625,
            "eccentricity": 0.07167968749999998,
            "inclination": 0.31276163841890575,
            "longitude_of_ascending_node": 4.270672320929952,
            "argument_of_perihelion": 2.194854711297808,
            "mean_anomaly": 5.512753147611657
        },
        {
            "name": "TNO-735",
            "mass": 0,
            "semi_major_axis": 401.220703125,
            "eccentricity": 0.07177734374999999,
            "inclination": 0.3131877441933184,
            "longitude_of_ascending_node": 3.3588973602958228,
            "argument_of_perihelion": 0.3835419050469333,
            "mean_anomaly": 3.2447435221241516
        }
    ]
}